{
    "links": {
        "self": "http://www.neowsapp.com/rest/v1/neo/54016370?api_key=iIulBulltgU6a56xZRHN4H3l9WmuAYTsLGpBGhQ2"
    },
    "id": "54016370",
    "neo_reference_id": "54016370",
    "name": "(2020 FG5)",
    "designation": "2020 FG5",
    "nasa_jpl_url": "http://ssd.jpl.nasa.gov/sbdb.cgi?sstr=54016370",
    "absolute_magnitude_h": 25.233,
    "estimated_diameter": {
        "kilometers": {
            "estimated_diameter_min": 0.0238756375,
            "estimated_diameter_max": 0.0533875485
        },
        "meters": {
            "estimated_diameter_min": 23.8756375088,
            "estimated_diameter_max": 53.3875484759
        },
        "miles": {
            "estimated_diameter_min": 0.0148356288,
            "estimated_diameter_max": 0.0331734744
        },
        "feet": {
            "estimated_diameter_min": 78.3321465645,
            "estimated_diameter_max": 175.1560045418
        }
    },
    "is_potentially_hazardous_asteroid": false,
    "close_approach_data": [
        {
            "close_approach_date": "2020-03-26",
            "close_approach_date_full": "2020-Mar-26 09:08",
            "epoch_date_close_approach": 1585213680000,
            "relative_velocity": {
                "kilometers_per_second": "8.1832858371",
                "kilometers_per_hour": "29459.8290137395",
                "miles_per_hour": "18305.1920891205"
            },
            "miss_distance": {
                "astronomical": "0.0721084396",
                "lunar": "28.0501830044",
                "kilometers": "10787268.973183652",
                "miles": "6702898.1224203176"
            },
            "orbiting_body": "Earth"
        }
    ],
    "orbital_data": {
        "orbit_id": "2",
        "orbit_determination_date": "2020-04-01 05:54:56",
        "first_observation_date": "2020-03-24",
        "last_observation_date": "2020-03-31",
        "data_arc_in_days": 7,
        "observations_used": 30,
        "orbit_uncertainty": "8",
        "minimum_orbit_intersection": ".0636653",
        "jupiter_tisserand_invariant": "3.484",
        "epoch_osculation": "2458933.5",
        "eccentricity": ".5158370935366188",
        "semi_major_axis": "2.177000079163037",
        "inclination": "9.137542802492707",
        "ascending_node_longitude": "6.044117432836726",
        "orbital_period": "1173.237927659567",
        "perihelion_distance": "1.054022685698587",
        "perihelion_argument": "166.061518228123",
        "aphelion_distance": "3.299977472627487",
        "perihelion_time": "2458924.156232479846",
        "mean_anomaly": "2.867070888140846",
        "mean_motion": ".3068431317406742",
        "equinox": "J2000",
        "orbit_class": {
            "orbit_class_type": "AMO",
            "orbit_class_description": "Near-Earth asteroid orbits similar to that of 1221 Amor",
            "orbit_class_range": "1.017 AU < q (perihelion) < 1.3 AU"
        }
    },
    "is_sentry_object": false
}